SL-4 R/B                
1 39679U 14021B   26040.83106791  .00011577  00000+0  26492-3 0  9995
2 39679  51.6061 113.0859 0098921   1.4641 358.6614 15.38278777651984
ALOS-2                  
1 39766U 14029A   26040.78644473  .00000508  00000+0  74842-4 0  9993
2 39766  97.9217 139.7863 0001402  99.3333 260.8037 14.79502299632748
YAOGAN-29               
1 41038U 15069A   26040.92817010  .00000066  00000+0  14863-4 0  9994
2 41038  98.0179  69.2797 0002903  81.7466 278.4076 14.82962596551768
ASTRO-H (HITOMI)        
1 41337U 16012A   26040.80293386  .00003857  00000+0  22701-3 0  9996
2 41337  30.9978 176.4765 0009881  52.0240 308.1289 15.09800486548011
HXMT (HUIYAN)           
1 42758U 17034A   26040.79950314  .00006296  00000+0  32006-3 0  9997
2 42758  43.0129 171.6858 0030814  56.8910 303.4890 15.17091357478306
CZ-2C R/B               
1 43521U 18054D   26040.88526444  .00423987  73180-4  91804-3 0  9997
2 43521  35.1284 134.4255 0012694  34.5002 325.6560 15.97152248424438
SAOCOM 1A               
1 43641U 18076A   26040.94612294  .00001197  00000+0  15690-3 0  9990
2 43641  97.8873 229.5118 0001418  83.9544 276.1831 14.82162109397255
H-2A R/B                
1 43682U 18084L   26040.54621039  .00021001  00000+0  52013-3 0  9993
2 43682  98.8763 251.9452 0026293 119.8258 240.5602 15.40107412401447
SAOCOM 1B               
1 46265U 20059A   26040.90985057  .00000440  00000+0  61881-4 0  9999
2 46265  97.8876 228.5751 0001535  87.0280 273.1108 14.82139069294638
CSS (TIANHE)            
1 48274U 21035A   26040.41958423  .00017568  00000+0  21981-3 0  9994
2 48274  41.4684  20.0103 0004696  39.0629 321.0548 15.59383314273191
COSMOS 2550             
1 48865U 21056A   26040.73890318 -.00000114  00000+0  23689-5 0  9995
2 48865  67.1429 125.4789 0008384 269.8458  90.1736 15.33830768259177
CZ-2C R/B               
1 52794U 22058K   26040.39773928  .00033074  00000+0  52000-3 0  9990
2 52794  50.1885 103.5986 0042305  80.5036 280.0712 15.52239416205739
